{"fetched_at":"2026-03-29T02:12:04Z","count":15717,"tles":[{"name":"STARLINK-35617","line1":"1 66422U 25259A   26087.55159304  .00025757  00000+0  94168-3 0  9994","line2":"2 66422  43.0029 168.0358 0001539 273.2352  86.8323 15.27599966 22376","category":"Starlink"}]}